NORAD_CAT_ID,OBJECT_NAME,OBJECT_TYPE,EPOCH,MEAN_MOTION,ECCENTRICITY,INCLINATION,RA_OF_ASC_NODE,ARG_OF_PERICENTER,MEAN_ANOMALY,BSTAR,MEAN_MOTION_DOT,MEAN_MOTION_DDOT,TLE_LINE0,TLE_LINE1,TLE_LINE2,SEMIMAJOR_AXIS,PERIOD,APOGEE,PERIGEE,DECAYED
53593.0,STARLINK-4671,PAYLOAD,2023-11-19 13:46:23,15.08842881,0.0001259,53.218,60.1315,90.6041,269.5095,8.7263e-05,1.101e-05,0.0,0 STARLINK-4671,1 53593U 22104F   23323.57388522  .00001101  00000-0  87263-4 0  9990,2 53593  53.2180  60.1315 0001259  90.6041 269.5095 15.08842881 68969,6917.872,95.437,540.608,538.866,0.0
53593.0,STARLINK-4671,PAYLOAD,2023-11-20 13:37:11,15.08839422,0.0001285,53.2182,55.6714,85.7801,274.3338,5.5826e-05,6.01e-06,0.0,0 STARLINK-4671,1 53593U 22104F   23324.56748910  .00000601  00000-0  55826-4 0  9995,2 53593  53.2182  55.6714 0001285  85.7801 274.3338 15.08839422 69110,6917.882,95.438,540.636,538.858,0.0
53593.0,STARLINK-4671,PAYLOAD,2023-11-21 13:27:57,15.08846379,0.0001319,53.2185,51.2116,89.4692,270.6451,7.7251e-05,9.42e-06,0.0,0 STARLINK-4671,1 53593U 22104F   23325.56108392  .00000942  00000-0  77251-4 0  9994,2 53593  53.2185  51.2116 0001319  89.4692 270.6451 15.08846379 69268,6917.861,95.437,540.638,538.813,0.0
53593.0,STARLINK-4671,PAYLOAD,2023-11-21 15:03:20,15.08847537,0.0001279,53.218,50.913,80.2545,279.8591,8.033e-05,9.91e-06,0.0,0 STARLINK-4671,1 53593U 22104F   23325.62732303  .00000991  00000-0  80330-4 0  9992,2 53593  53.2180  50.9130 0001279  80.2545 279.8591 15.08847537 69270,6917.857,95.437,540.607,538.838,0.0
53593.0,STARLINK-4671,PAYLOAD,2023-11-22 13:18:44,15.08852151,0.0001536,53.2194,46.7493,81.147,278.9696,0.00015632,2.202e-05,0.0,0 STARLINK-4671,1 53593U 22104F   23326.55467784  .00002202  00000-0  15632-3 0  9992,2 53593  53.2194  46.7493 0001536  81.1470 278.9696 15.08852151 69413,6917.843,95.437,540.771,538.646,0.0
53593.0,STARLINK-4671,PAYLOAD,2023-11-23 11:34:09,15.08838611,0.0001738,53.2199,42.5841,89.7471,270.3721,2.3589e-05,8.7e-07,0.0,0 STARLINK-4671,1 53593U 22104F   23327.48204885  .00000087  00000-0  23589-4 0  9996,2 53593  53.2199  42.5841 0001738  89.7471 270.3721 15.08838611 68530,6917.885,95.438,540.952,538.547,0.0
53593.0,STARLINK-4671,PAYLOAD,2023-11-24 11:24:56,15.08839012,0.0001542,53.2189,38.1269,88.0304,272.0865,-0.00011526,-2.122e-05,0.0,0 STARLINK-4671,1 53593U 22104F   23328.47565778 -.00002122  00000-0 -11526-3 0  9998,2 53593  53.2189  38.1269 0001542  88.0304 272.0865 15.08839012 68684,6917.883,95.438,540.815,538.682,0.0
53593.0,STARLINK-4671,PAYLOAD,2023-11-24 14:35:42,15.08839912,0.0001819,53.2199,37.5302,86.9915,273.1286,-5.1667e-05,-1.11e-05,0.0,0 STARLINK-4671,1 53593U 22104F   23328.60813517 -.00001110  00000-0 -51667-4 0  9997,2 53593  53.2199  37.5302 0001819  86.9915 273.1286 15.08839912 69722,6917.881,95.438,541.004,538.487,0.0
53593.0,STARLINK-4671,PAYLOAD,2023-11-25 09:40:19,15.08847207,0.00018,53.2193,33.9629,109.5288,250.5899,0.00024077,3.547e-05,0.0,0 STARLINK-4671,1 53593U 22104F   23329.40300407  .00003547  00000-0  24077-3 0  9993,2 53593  53.2193  33.9629 0001800 109.5288 250.5899 15.08847207 69841,6917.858,95.437,540.969,538.478,0.0
53593.0,STARLINK-4671,PAYLOAD,2023-11-25 14:26:28,15.0885759,0.0001711,53.219,33.0702,104.0274,256.0909,0.00011897,1.607e-05,0.0,0 STARLINK-4671,1 53593U 22104F   23329.60172129  .00001607  00000-0  11897-3 0  9994,2 53593  53.2190  33.0702 0001711 104.0274 256.0909 15.08857590 69879,6917.827,95.436,540.875,538.508,0.0
53593.0,STARLINK-4671,PAYLOAD,2023-11-26 11:06:28,15.0885972,0.0001601,53.2189,29.2032,103.2106,256.9065,0.00028534,4.258e-05,0.0,0 STARLINK-4671,1 53593U 22104F   23330.46283293  .00004258  00000-0  28534-3 0  9996,2 53593  53.2189  29.2032 0001601 103.2106 256.9065 15.08859720 68983,6917.82,95.436,540.793,538.578,0.0
53593.0,STARLINK-4671,PAYLOAD,2023-11-26 23:49:34,15.08841821,0.0002143,53.2184,26.8265,111.7964,248.3256,-0.00011098,-2.054e-05,0.0,0 STARLINK-4671,1 53593U 22104F   23330.99276477 -.00002054  00000-0 -11098-3 0  9991,2 53593  53.2184  26.8265 0002143 111.7964 248.3256 15.08841821 69067,6917.875,95.437,541.222,538.257,0.0
53593.0,STARLINK-4671,PAYLOAD,2023-11-27 09:21:55,15.08822164,0.0001911,53.2192,25.0443,106.9911,253.1291,-0.0002323,-3.982e-05,0.0,0 STARLINK-4671,1 53593U 22104F   23331.39023079 -.00003982  00000-0 -23230-3 0  9996,2 53593  53.2192  25.0443 0001911 106.9911 253.1291 15.08822164 69124,6917.935,95.439,541.122,538.478,0.0
53593.0,STARLINK-4671,PAYLOAD,2023-11-27 14:08:05,15.08825105,0.0001888,53.2178,24.1464,113.8654,246.2536,-0.00021993,-3.785e-05,0.0,0 STARLINK-4671,1 53593U 22104F   23331.58894893 -.00003785  00000-0 -21993-3 0  9992,2 53593  53.2178  24.1464 0001888 113.8654 246.2536 15.08825105 70175,6917.926,95.438,541.097,538.485,0.0
53593.0,STARLINK-4671,PAYLOAD,2023-11-28 10:48:03,15.08858749,0.0001727,53.2188,20.2822,82.2097,277.9091,5.0543e-05,5.17e-06,0.0,0 STARLINK-4671,1 53593U 22104F   23332.45004322  .00000517  00000-0  50543-4 0  9991,2 53593  53.2188  20.2822 0001727  82.2097 277.9091 15.08858749 69280,6917.823,95.436,540.883,538.493,0.0
53593.0,STARLINK-4671,PAYLOAD,2023-11-28 12:23:26,15.08860267,0.000174,53.219,19.9834,86.9792,273.1399,6.4026e-05,7.32e-06,0.0,0 STARLINK-4671,1 53593U 22104F   23332.51628063  .00000732  00000-0  64026-4 0  9992,2 53593  53.2190  19.9834 0001740  86.9792 273.1399 15.08860267 70312,6917.818,95.436,540.887,538.48,0.0
53593.0,STARLINK-4671,PAYLOAD,2023-11-28 23:31:10,15.08819835,0.0001536,53.2177,17.905,73.5811,286.535,0.00025713,3.804e-05,0.0,0 STARLINK-4671,1 53593U 22104F   23332.97998417  .00003804  00000-0  25713-3 0  9997,2 53593  53.2177  17.9050 0001536  73.5811 286.5350 15.08819835 69365,6917.942,95.439,540.87,538.744,0.0
53593.0,STARLINK-4671,PAYLOAD,2023-11-29 10:38:52,15.08840448,0.0001803,53.2173,15.8241,78.7054,281.414,0.00043822,6.693e-05,0.0,0 STARLINK-4671,1 53593U 22104F   23333.44366198  .00006693  00000-0  43822-3 0  9995,2 53593  53.2173  15.8241 0001803  78.7054 281.4140 15.08840448 69436,6917.879,95.438,540.991,538.497,0.0
53593.0,STARLINK-4671,PAYLOAD,2023-11-30 10:29:39,15.08849316,0.0002287,53.2194,11.3647,65.0061,295.1169,0.00012793,1.749e-05,0.0,0 STARLINK-4671,1 53593U 22104F   23334.43726163  .00001749  00000-0  12793-3 0  9997,2 53593  53.2194  11.3647 0002287  65.0061 295.1169 15.08849316 69586,6917.852,95.437,541.299,538.135,0.0
53593.0,STARLINK-4671,PAYLOAD,2023-12-01 08:45:03,15.08842272,0.0001954,53.2184,7.2051,87.8573,272.2643,0.00021921,3.203e-05,0.0,0 STARLINK-4671,1 53593U 22104F   23335.36462629  .00003203  00000-0  21921-3 0  9994,2 53593  53.2184   7.2051 0001954  87.8573 272.2643 15.08842272 69721,6917.873,95.437,541.09,538.387,0.0
53593.0,STARLINK-4671,PAYLOAD,2023-12-02 11:46:36,15.08832188,0.0001713,53.218,2.1474,77.2749,282.8435,-0.00026121,-4.442e-05,0.0,0 STARLINK-4671,1 53593U 22104F   23336.49069815 -.00004442  00000-0 -26121-3 0  9994,2 53593  53.2180   2.1474 0001713  77.2749 282.8435 15.08832188 69890,6917.904,95.438,540.954,538.584,0.0
53593.0,STARLINK-4671,PAYLOAD,2023-12-03 02:05:05,15.08814659,0.0001314,53.2179,359.466,96.0102,264.104,-0.00044777,-7.402e-05,0.0,0 STARLINK-4671,1 53593U 22104F   23337.08687392 -.00007402  00000-0 -44777-3 0  9992,2 53593  53.2179 359.4660 0001314  96.0102 264.1040 15.08814659 69980,6917.958,95.439,540.732,538.914,0.0
53593.0,STARLINK-4671,PAYLOAD,2023-12-03 08:26:38,15.08819727,0.0001381,53.2175,358.2769,96.6315,263.4834,-0.00020825,-3.599e-05,0.0,0 STARLINK-4671,1 53593U 22104F   23337.35183652 -.00003599  00000-0 -20825-3 0  9993,2 53593  53.2175 358.2769 0001381  96.6315 263.4834 15.08819727 71043,6917.942,95.439,540.763,538.852,0.0
53593.0,STARLINK-4671,PAYLOAD,2023-12-04 01:55:53,15.08837131,0.000122,53.2172,355.0045,92.3731,267.7401,2.0376e-05,3.6e-07,0.0,0 STARLINK-4671,1 53593U 22104F   23338.08047692  .00000036  00000-0  20376-4 0  9990,2 53593  53.2172 355.0045 0001220  92.3731 267.7401 15.08837131 70134,6917.889,95.438,540.598,538.91,0.0
53593.0,STARLINK-4671,PAYLOAD,2023-12-04 08:17:26,15.08847493,0.0001293,53.2174,353.8152,87.31,272.804,0.00096066,0.00015037,0.0,0 STARLINK-4671,1 53593U 22104F   23338.34544163  .00015037  00000-0  96066-3 0  9999,2 53593  53.2174 353.8152 0001293  87.3100 272.8040 15.08847493 71190,6917.857,95.437,540.617,538.828,0.0
53593.0,STARLINK-4671,PAYLOAD,2023-12-05 06:32:49,15.08863265,0.0001372,53.2176,349.655,93.8488,266.2661,0.00056944,8.792e-05,0.0,0 STARLINK-4671,1 53593U 22104F   23339.27279206  .00008792  00000-0  56944-3 0  9996,2 53593  53.2176 349.6550 0001372  93.8488 266.2661 15.08863265 70310,6917.809,95.436,540.623,538.725,0.0
53593.0,STARLINK-4671,PAYLOAD,2023-12-06 04:48:12,15.08853912,0.00017,53.2176,345.4967,111.3382,248.7792,0.00040452,6.158e-05,0.0,0 STARLINK-4671,1 53593U 22104F   23340.20014703  .00006158  00000-0  40452-3 0  9991,2 53593  53.2176 345.4967 0001700 111.3382 248.7792 15.08853912 70453,6917.838,95.437,540.879,538.527,0.0
53593.0,STARLINK-4671,PAYLOAD,2023-12-06 09:34:21,15.08854617,0.0001456,53.2175,344.601,96.8624,263.2533,0.00012296,1.67e-05,0.0,0 STARLINK-4671,1 53593U 22104F   23340.39886486  .00001670  00000-0  12296-3 0  9995,2 53593  53.2175 344.6010 0001456  96.8624 263.2533 15.08854617 71501,6917.836,95.437,540.708,538.693,0.0
53593.0,STARLINK-4671,PAYLOAD,2023-12-07 09:25:09,15.08844588,0.0001503,53.2173,340.141,90.6386,269.4778,4.0435e-05,3.56e-06,0.0,0 STARLINK-4671,1 53593U 22104F   23341.39246865  .00000356  00000-0  40435-4 0  9994,2 53593  53.2173 340.1410 0001503  90.6386 269.4778 15.08844588 70632,6917.866,95.437,540.771,538.692,0.0
53593.0,STARLINK-4671,PAYLOAD,2023-12-08 09:15:56,15.08839673,0.0001672,53.2179,335.6729,78.7698,281.3482,2.5541e-05,1.18e-06,0.0,0 STARLINK-4671,1 53593U 22104F   23342.38607326  .00000118  00000-0  25541-4 0  9994,2 53593  53.2179 335.6729 0001672  78.7698 281.3482 15.08839673 70780,6917.881,95.438,540.903,538.59,0.0
